{
  "type": "FeatureCollection",
  "features": [
    {
      "type": "Feature",
      "properties": {
        "norad_id": 35836,
        "name": "COSMOS 2251 DEB",
        "group": "cosmos-2251-debris",
        "lat": 32.54887146255214,
        "lon": 178.1341562794569,
        "alt_km": 672.0726319993109,
        "timestamp": "2025-12-15T11:38:37.548781+00:00",
        "meta_object_name": "COSMOS 2251 DEB",
        "meta_object_id": "1993-036ATJ",
        "meta_epoch": "2025-12-14T06:06:34.398720",
        "meta_mean_motion": 14.71015396,
        "meta_eccentricity": 0.00241199,
        "meta_inclination": 74.0313,
        "meta_ra_of_asc_node": 169.9927,
        "meta_arg_of_pericenter": 228.4165,
        "meta_mean_anomaly": 131.494,
        "meta_ephemeris_type": 0,
        "meta_classification_type": "U",
        "meta_norad_cat_id": 35836,
        "meta_element_set_no": 999,
        "meta_rev_at_epoch": 63542,
        "meta_bstar": 0.00209632,
        "meta_mean_motion_dot": 0.00012917,
        "meta_mean_motion_ddot": 0,
        "tle_line1": "1 35836U 93036ATJ 25348.25456480  .00012917  00000+0  20963-2 0  9993",
        "tle_line2": "2 35836  74.0313 169.9927 0024119 228.4165 131.4940 14.71015396635422"
      },
      "geometry": {
        "type": "Point",
        "coordinates": [
          178.1341562794569,
          32.54887146255214
        ]
      }
    },
    {
      "type": "Feature",
      "properties": {
        "norad_id": 35837,
        "name": "COSMOS 2251 DEB",
        "group": "cosmos-2251-debris",
        "lat": -24.626875421493363,
        "lon": -164.63548808902573,
        "alt_km": 1292.7158329186923,
        "timestamp": "2025-12-15T11:38:37.548791+00:00",
        "meta_object_name": "COSMOS 2251 DEB",
        "meta_object_id": "1993-036ATK",
        "meta_epoch": "2025-12-09T22:01:37.127712",
        "meta_mean_motion": 13.63437069,
        "meta_eccentricity": 0.04220669,
        "meta_inclination": 73.7216,
        "meta_ra_of_asc_node": 212.3216,
        "meta_arg_of_pericenter": 133.5531,
        "meta_mean_anomaly": 246.304,
        "meta_ephemeris_type": 0,
        "meta_classification_type": "U",
        "meta_norad_cat_id": 35837,
        "meta_element_set_no": 999,
        "meta_rev_at_epoch": 57938,
        "meta_bstar": 0.0025074688,
        "meta_mean_motion_dot": 3.597e-05,
        "meta_mean_motion_ddot": 0,
        "tle_line1": "1 35837U 93036ATK 25343.91779083  .00003597  00000+0  25075-2 0  9992",
        "tle_line2": "2 35837  73.7216 212.3216 0422066 133.5531 246.3040 13.63437069579385"
      },
      "geometry": {
        "type": "Point",
        "coordinates": [
          -164.63548808902573,
          -24.626875421493363
        ]
      }
    },
    {
      "type": "Feature",
      "properties": {
        "norad_id": 35839,
        "name": "COSMOS 2251 DEB",
        "group": "cosmos-2251-debris",
        "lat": 66.19681355190946,
        "lon": -2.5585531426804318,
        "alt_km": 395.9639364593004,
        "timestamp": "2025-12-15T11:38:37.548801+00:00",
        "meta_object_name": "COSMOS 2251 DEB",
        "meta_object_id": "1993-036ATM",
        "meta_epoch": "2025-12-14T13:42:19.972800",
        "meta_mean_motion": 15.53837265,
        "meta_eccentricity": 0.00029965,
        "meta_inclination": 74.2058,
        "meta_ra_of_asc_node": 319.5188,
        "meta_arg_of_pericenter": 130.1223,
        "meta_mean_anomaly": 230.0256,
        "meta_ephemeris_type": 0,
        "meta_classification_type": "U",
        "meta_norad_cat_id": 35839,
        "meta_element_set_no": 999,
        "meta_rev_at_epoch": 88596,
        "meta_bstar": 0.0047924044,
        "meta_mean_motion_dot": 0.00321037,
        "meta_mean_motion_ddot": 0,
        "tle_line1": "1 35839U 93036ATM 25348.57106450  .00321037  00000+0  47924-2 0  9992",
        "tle_line2": "2 35839  74.2058 319.5188 0002996 130.1223 230.0256 15.53837265885968"
      },
      "geometry": {
        "type": "Point",
        "coordinates": [
          -2.5585531426804318,
          66.19681355190946
        ]
      }
    },
    {
      "type": "Feature",
      "properties": {
        "norad_id": 35840,
        "name": "COSMOS 2251 DEB",
        "group": "cosmos-2251-debris",
        "lat": 22.63048865601973,
        "lon": -33.809455878193944,
        "alt_km": 780.1834221991412,
        "timestamp": "2025-12-15T11:38:37.548811+00:00",
        "meta_object_name": "COSMOS 2251 DEB",
        "meta_object_id": "1993-036ATN",
        "meta_epoch": "2025-12-12T04:26:56.474304",
        "meta_mean_motion": 14.37821687,
        "meta_eccentricity": 0.01162768,
        "meta_inclination": 73.9307,
        "meta_ra_of_asc_node": 159.2062,
        "meta_arg_of_pericenter": 61.7798,
        "meta_mean_anomaly": 299.5037,
        "meta_ephemeris_type": 0,
        "meta_classification_type": "U",
        "meta_norad_cat_id": 35840,
        "meta_element_set_no": 999,
        "meta_rev_at_epoch": 85283,
        "meta_bstar": 0.0026691111,
        "meta_mean_motion_dot": 8.683e-05,
        "meta_mean_motion_ddot": 0,
        "tle_line1": "1 35840U 93036ATN 25346.18537586  .00008683  00000+0  26691-2 0  9994",
        "tle_line2": "2 35840  73.9307 159.2062 0116276  61.7798 299.5037 14.37821687852835"
      },
      "geometry": {
        "type": "Point",
        "coordinates": [
          -33.809455878193944,
          22.63048865601973
        ]
      }
    },
    {
      "type": "Feature",
      "properties": {
        "norad_id": 35883,
        "name": "COSMOS 2251 DEB",
        "group": "cosmos-2251-debris",
        "lat": -70.23766047155364,
        "lon": 11.987255384721918,
        "alt_km": 728.2410693048296,
        "timestamp": "2025-12-15T11:38:37.548820+00:00",
        "meta_object_name": "COSMOS 2251 DEB",
        "meta_object_id": "1993-036ATW",
        "meta_epoch": "2025-12-13T12:05:57.517152",
        "meta_mean_motion": 14.50609959,
        "meta_eccentricity": 0.00836491,
        "meta_inclination": 74.0249,
        "meta_ra_of_asc_node": 68.5878,
        "meta_arg_of_pericenter": 197.7693,
        "meta_mean_anomaly": 181.9893,
        "meta_ephemeris_type": 0,
        "meta_classification_type": "U",
        "meta_norad_cat_id": 35883,
        "meta_element_set_no": 999,
        "meta_rev_at_epoch": 62397,
        "meta_bstar": 0.00052354621,
        "meta_mean_motion_dot": 2.119e-05,
        "meta_mean_motion_ddot": 0,
        "tle_line1": "1 35883U 93036ATW 25347.50413793  .00002119  00000+0  52355-3 0  9996",
        "tle_line2": "2 35883  74.0249  68.5878 0083649 197.7693 181.9893 14.50609959623973"
      },
      "geometry": {
        "type": "Point",
        "coordinates": [
          11.987255384721918,
          -70.23766047155364
        ]
      }
    },
    {
      "type": "Feature",
      "properties": {
        "norad_id": 35884,
        "name": "COSMOS 2251 DEB",
        "group": "cosmos-2251-debris",
        "lat": 60.40586656783365,
        "lon": 120.67719196778255,
        "alt_km": 721.9745490179157,
        "timestamp": "2025-12-15T11:38:37.548830+00:00",
        "meta_object_name": "COSMOS 2251 DEB",
        "meta_object_id": "1993-036ATX",
        "meta_epoch": "2025-12-09T17:00:47.209536",
        "meta_mean_motion": 14.25629404,
        "meta_eccentricity": 0.01087033,
        "meta_inclination": 73.9912,
        "meta_ra_of_asc_node": 341.4952,
        "meta_arg_of_pericenter": 129.2859,
        "meta_mean_anomaly": 231.7992,
        "meta_ephemeris_type": 0,
        "meta_classification_type": "U",
        "meta_norad_cat_id": 35884,
        "meta_element_set_no": 999,
        "meta_rev_at_epoch": 22314,
        "meta_bstar": 0.001725321,
        "meta_mean_motion_dot": 4.326e-05,
        "meta_mean_motion_ddot": 0,
        "tle_line1": "1 35884U 93036ATX 25343.70887974  .00004326  00000+0  17253-2 0  9990",
        "tle_line2": "2 35884  73.9912 341.4952 0108703 129.2859 231.7992 14.25629404223146"
      },
      "geometry": {
        "type": "Point",
        "coordinates": [
          120.67719196778255,
          60.40586656783365
        ]
      }
    },
    {
      "type": "Feature",
      "properties": {
        "norad_id": 35885,
        "name": "COSMOS 2251 DEB",
        "group": "cosmos-2251-debris",
        "lat": 21.619745858486148,
        "lon": -63.74102493640765,
        "alt_km": 749.9282534175054,
        "timestamp": "2025-12-15T11:38:37.548840+00:00",
        "meta_object_name": "COSMOS 2251 DEB",
        "meta_object_id": "1993-036ATY",
        "meta_epoch": "2025-12-13T12:46:26.419872",
        "meta_mean_motion": 14.37522358,
        "meta_eccentricity": 0.00232582,
        "meta_inclination": 74.0285,
        "meta_ra_of_asc_node": 293.3358,
        "meta_arg_of_pericenter": 13.5954,
        "meta_mean_anomaly": 346.5821,
        "meta_ephemeris_type": 0,
        "meta_classification_type": "U",
        "meta_norad_cat_id": 35885,
        "meta_element_set_no": 999,
        "meta_rev_at_epoch": 65027,
        "meta_bstar": 0.00047052352,
        "meta_mean_motion_dot": 1.388e-05,
        "meta_mean_motion_ddot": 0,
        "tle_line1": "1 35885U 93036ATY 25347.53225023  .00001388  00000+0  47052-3 0  9993",
        "tle_line2": "2 35885  74.0285 293.3358 0023258  13.5954 346.5821 14.37522358650276"
      },
      "geometry": {
        "type": "Point",
        "coordinates": [
          -63.74102493640765,
          21.619745858486148
        ]
      }
    }
  ]
}